CUTE-1 (CO-55)          
1 27844U 03031E   25223.98734894  .00000288  00000+0  14437-3 0  9997
2 27844  98.6774 231.4464 0009812  11.0822 349.0571 14.24038381147696
CUBESAT XI-IV (CO-57)   
1 27848U 03031J   25223.75461992  .00000262  00000+0  13485-3 0  9996
2 27848  98.6802 231.1743 0010078  28.5399 331.6329 14.23367062147358
MOZHAYETS 4 (RS-22)     
1 27939U 03042A   25224.55496007  .00001156  00000+0  19029-3 0  9996
2 27939  98.3338  35.5762 0011762 161.5248 290.2036 14.72485354170247
IRS-P6 (RESOURCESAT-1)  
1 28051U 03046A   25224.51672398  .00000200  00000+0  81249-4 0  9994
2 28051  98.2369 270.4501 0064054 186.9788 310.0062 14.35999886136251
SAUDISAT 2              
1 28371U 04025F   25224.51590308  .00000294  00000+0  77076-4 0  9993
2 28371  98.5303 211.9030 0025201 162.1804 198.0283 14.56365598120858
COSMOS 2407             
1 28380U 04028A   25223.74385485  .00000077  00000+0  63008-4 0  9997
2 28380  82.9621 303.9902 0040023  39.6369  75.8112 13.76296483 57311
COSMOS 2414             
1 28521U 05002A   25224.55002541  .00000065  00000+0  40736-4 0  9996
2 28521  82.9479 277.0729 0041350 128.3753 232.1137 13.87882674 41340
INMARSAT 4-F1           
1 28628U 05009A   25224.18558691  .00000034  00000+0  00000+0 0  9993
2 28628   4.7613  42.4065 0001986 128.0367  35.3437  1.00271826 74565
HAMSAT (VO-52)          
1 28650U 05017B   25223.95902968  .00005860  00000+0  40761-3 0  9995
2 28650  98.0050 229.4836 0020781   6.7901 353.3602 15.05735162100165
NOAA 18                 
1 28654U 05018A   25224.46555407  .00000097  00000+0  74696-4 0  9991
2 28654  98.8402 303.2180 0013319 310.9570  49.0449 14.13626346 42773
SJ-7                    
1 28737U 05024A   25223.94514199  .00008059  00000+0  42733-3 0  9997
2 28737  97.7570 241.5221 0018368  27.9416 332.2798 15.15506244101094
CUBESAT XI-V            
1 28895U 05043F   25224.38617480  .00001705  00000+0  28464-3 0  9995
2 28895  98.2581   9.5691 0015674 104.0621 256.2329 14.71202069 56556
CLOUDSAT                
1 29107U 06016A   25224.33888523  .00001349  00000+0  16366-3 0  9998
2 29107  98.4225 239.1295 0004083 243.2741 116.8054 14.85386748 28795
CALIPSO                 
1 29108U 06016B   25223.97337006  .00001262  00000+0  22747-3 0  9997
2 29108  98.4499 224.2032 0001566 108.6240 251.5134 14.68357150 27661
HINODE (SOLAR-B)        
1 29479U 06041A   25223.94445975  .00000717  00000+0  13343-3 0  9994
2 29479  98.0718 239.5018 0017513 184.1695 175.9367 14.68010527  9499
METOP-A                 
1 29499U 06044A   25224.57201573  .00001225  00000+0  15174-3 0  9992
2 29499  98.3311 317.1338 0177934 332.7319  86.1806 14.74251861982800
SHIJIAN-6 02B (SJ-6 02B)
1 29506U 06046B   25224.49937721  .00002022  00000+0  16709-3 0  9996
2 29506  97.7082 251.3945 0008425  24.6299 335.5325 15.00046969 24447
DMSP 5D-3 F17 (USA 191) 
1 29522U 06050A   25224.50097234  .00000088  00000+0  68205-4 0  9996
2 29522  98.7404 232.4001 0009369 211.9537 148.1069 14.14846930968766
LAPAN-TUBSAT            
1 29709U 07001A   25224.52760991  .00000594  00000+0  75472-4 0  9995
2 29709  98.1143 212.2434 0013666 108.6042 251.6657 14.85408944  5336
HAIYANG-1B              
1 31113U 07010A   25223.94662104  .00000086  00000+0  48553-4 0  9995
2 31113  98.3182 213.3611 0014468  42.3416 317.8882 14.30909383956403
BEIDOU-2 M1             
1 31115U 07011A   25223.83409468  .00000059  00000+0  00000+0 0  9998
2 31115  51.0484 229.5588 0001928 319.5927  40.4054  1.77349282120902
CAPE-1                  
1 31130U 07012P   25223.89606251  .00001590  00000+0  30111-3 0  9992
2 31130  98.4025 186.1497 0084396 317.1339  42.3303 14.63582075973073
CBERS 2B                
1 32062U 07042A   25224.47546850  .00000213  00000+0  78671-4 0  9998
2 32062  98.3507 170.2495 0030997 182.1618 290.8094 14.41218008940273
COSMO-SKYMED 2          
1 32376U 07059A   25224.50294812  .00000482  00000+0  67069-4 0  9993
2 32376  97.8896  47.5797 0001458  91.0671 269.0709 14.82150715956356
CARTOSAT-2A             
1 32783U 08021A   25224.46966151  .00000713  00000+0  10385-3 0  9997
2 32783  97.8108 278.0024 0011981  41.6522 318.5599 14.78776569933264
CUTE-1.7+APD II (CO-65) 
1 32785U 08021C   25223.91379825  .00005327  00000+0  37964-3 0  9992
2 32785  97.7909 195.5854 0009731  12.2743 347.8718 15.04983743938602
COMPASS-1               
1 32787U 08021E   25223.95405767  .00067911  00000+0  11525-2 0  9994
2 32787  97.6446 217.8126 0008503 133.9054 226.2901 15.51221557942059
SEEDS II (CO-66)        
1 32791U 08021J   25223.92904408  .00012895  00000+0  60044-3 0  9994
2 32791  97.7321 205.4556 0001933 347.4933  12.6253 15.20056154940112
YUBILEINY (RS-30)       
1 32953U 08025A   25224.54370542  .00000017  00000+0  49754-4 0  9992
2 32953  82.5043 187.4020 0017884 266.7806  93.1228 12.43166989781472
FENGYUN 3A              
1 32958U 08026A   25224.45966843  .00000086  00000+0  61168-4 0  9992
2 32958  98.6496 166.6991 0007737 302.5441  57.4987 14.19461180891713
HUANJING 1A (HJ-1A)     
1 33320U 08041A   25224.51313442  .00001393  00000+0  17758-3 0  9998
2 33320  97.6443 218.0076 0020952  73.5395 286.8120 14.82857407912746
HUANJING 1B (HJ-1B)     
1 33321U 08041B   25224.49568174  .00001103  00000+0  14245-3 0  9997
2 33321  97.6324 221.9816 0038486 115.3434 245.1773 14.82369395912757
SHIJIAN-6 03A (SJ-6 03A)
1 33408U 08053A   25223.96177971  .00005629  00000+0  32554-3 0  9998
2 33408  97.8717 241.9216 0012097   1.9150 358.2124 15.12637232916147
SHIJIAN-6 03B (SJ-6 03B)
1 33409U 08053B   25224.50373716  .00002060  00000+0  15833-3 0  9992
2 33409  97.8739 234.3332 0019749   5.0302 355.1117 15.02760275916367
CHUANGXIN 1-02 (CX-1-02)
1 33434U 08056B   25224.54389190  .00000070  00000+0  44386-4 0  9995
2 33434  98.6450 248.4090 0013634 330.9483  29.0939 14.30058642874885
STARS (KUKAI)           
1 33498U 09002G   25224.23005056  .00004565  00000+0  45283-3 0  9998
2 33498  98.1234 155.3487 0010740 106.4188 253.8211 14.92256347892766
KKS-1 (KISEKI)          
1 33499U 09002H   25224.34005386  .00001484  00000+0  19484-3 0  9998
2 33499  98.1148 137.2650 0007389 201.2087 158.8820 14.81791209890867
NOAA 19                 
1 33591U 09005A   25224.48232446  .00000157  00000+0  10745-3 0  9995
2 33591  98.9934 289.5338 0013867 178.9557 181.1646 14.13395427851134
UK-DMC 2                
1 35683U 09041C   25224.50229726  .00000871  00000+0  13599-3 0  9992
2 35683  97.8403   3.0130 0001323 101.6969 258.4389 14.75238687861090
METEOR-M 1              
1 35865U 09049A   25224.49088842  .00000086  00000+0  57580-4 0  9999
2 35865  98.6903 184.9994 0003256 110.5805 249.5723 14.23038347825488
OCEANSAT-2              
1 35931U 09051A   25224.51685588 -.00000085  00000+0 -32459-4 0  9998
2 35931  98.2229 237.4750 0016416  32.9019 327.3166 13.99594774836154
SWISSCUBE               
1 35932U 09051B   25223.68963814  .00001157  00000+0  24335-3 0  9999
2 35932  98.4221 121.0889 0008245  93.9784 266.2359 14.61461716843935
BEESAT-1                
1 35933U 09051C   25223.68969228  .00000966  00000+0  20762-3 0  9992
2 35933  98.4151 121.3299 0006589 104.5962 255.5969 14.60857020843981
ITUPSAT1                
1 35935U 09051E   25223.69015421  .00000883  00000+0  19562-3 0  9996
2 35935  98.4246 120.8186 0008735 113.7557 246.4559 14.59646386843572
DMSP 5D-3 F18 (USA 210) 
1 35951U 09057A   25224.51335820  .00000255  00000+0  15552-3 0  9998
2 35951  98.8646 201.6305 0012134  52.1179 308.1090 14.14670046815928
PROBA-2                 
1 36037U 09059B   25223.99830518  .00000204  00000+0  58379-4 0  9990
2 36037  98.2399  46.7732 0013791 150.8252 209.3719 14.54588244836669
YAOGAN-7                
1 36110U 09069A   25224.53248559  .00000511  00000+0  78803-4 0  9997
2 36110  98.0463 106.6626 0023877 316.5348  43.3980 14.77488867844088
XIWANG-1 (HOPE-1)       
1 36122U 09072B   25223.85013153 -.00000034  00000+0  26549-4 0  9999
2 36122 100.3529 178.3034 0006991 217.1133 142.9497 13.16426728752308
RADUGA-1M 2             
1 36358U 10002A   25224.38884113 -.00000221  00000+0  00000+0 0  9993
2 36358   2.8096  82.7952 0003903 239.6128  97.9137  0.98967992 56883
COSMOS 2463             
1 36519U 10017A   25223.82864016  .00000066  00000+0  56360-4 0  9997
2 36519  82.9607 117.0352 0034761 268.7641 160.8581 13.71635164765523
CARTOSAT-2B             
1 36795U 10035A   25224.50548558  .00000734  00000+0  10671-3 0  9995
2 36795  97.8045 277.3583 0012949 110.4556 249.8047 14.78720699814311
AISSAT 1                
1 36797U 10035C   25224.55530383  .00003005  00000+0  27804-3 0  9999
2 36797  98.1252 107.7602 0009336   9.4543 350.6851 14.95322681818196
TISAT 1                 
1 36799U 10035E   25223.70634086  .00012225  00000+0  60532-3 0  9991
2 36799  98.0543 141.7368 0001848 199.3865 160.7297 15.17946485820548
YAOGAN-10               
1 36834U 10038A   25224.51286782  .00000666  00000+0  85893-4 0  9994
2 36834  97.9250 245.1747 0001619  88.1019  56.2508 14.84292815811473
SHIJIAN-6 04B (SJ-6 04B)
1 37180U 10051B   25224.53895278  .00001597  00000+0  13899-3 0  9992
2 37180  97.8633 222.0495 0008699 259.5314 100.4927 14.98376337809463
FENGYUN 3B              
1 37214U 10059A   25224.54861411  .00000066  00000+0  57645-4 0  9999
2 37214  99.0094 263.5362 0021755 343.8184 138.4910 14.14744837763823
COSMO-SKYMED 4          
1 37216U 10060A   25224.51561084  .00000470  00000+0  65629-4 0  9993
2 37216  97.8895  47.5942 0001402  87.5282 272.6092 14.82154138798905
O/OREOS (USA 219)       
1 37224U 10062C   25224.21085107  .00002382  00000+0  24206-3 0  9997
2 37224  71.9703  59.2223 0016517 291.7855  68.1557 14.91726036 70533
ELEKTRO-L 1 (GOMS 2)    
1 37344U 11001A   25223.89230867 -.00000195  00000+0  00000+0 0  9995
2 37344   8.9781  57.5889 0004356  43.2379 156.2851  1.00239645 53381
